ORBCOMM FM05 [-]        
1 25117U 97084F   23282.81802348  .00004211  00000+0  13276-2 0  9993
2 25117  45.0150  76.2699 0001491  11.7348 348.3537 14.41506958351545
ORBCOMM FM06 [+]        
1 25118U 97084G   23283.47679119  .00004456  00000+0  14037-2 0  9992
2 25118  45.0147  73.2856 0000753  52.6390 353.9475 14.41454315352571
ORBCOMM FM07 [-]        
1 25119U 97084H   23282.75624201  .00004112  00000+0  13004-2 0  9997
2 25119  45.0138  77.1573 0002054 348.5602  11.5201 14.41393370352443
ORBCOMM FM03 [-]        
1 25158U 98007B   23282.93134334  .00001749  00000+0  69930-3 0  9992
2 25158 107.9824 312.7271 0049793 244.7640 114.8331 14.31333372335772
ORBCOMM FM04 [+]        
1 25159U 98007C   23282.88889531  .00002068  00000+0  81525-3 0  9992
2 25159 107.9799 315.4342 0045288 242.9931 116.6579 14.31607425335936
ORBCOMM FM17 [-]        
1 25413U 98046A   23282.70386216  .00002092  00000+0  81805-3 0  9999
2 25413  44.9938 280.3993 0003137 321.5247  38.5375 14.32390134314702
ORBCOMM FM18 [-]        
1 25414U 98046B   23282.88191680  .00003123  00000+0  11375-2 0  9998
2 25414  44.9931 210.9778 0004242  40.5537 319.5625 14.34901261315627
ORBCOMM FM19 [+]        
1 25415U 98046C   23282.83168744  .00002933  00000+0  10742-2 0  9994
2 25415  44.9938 212.3599 0003430  24.0539   9.4882 14.34773701315580
