<?xml version="1.0" encoding="UTF-8"?>
<ndm xmlns:xsi="http://www.w3.org/2001/XMLSchema-instance" xsi:noNamespaceSchemaLocation="https://sanaregistry.org/r/ndmxml_unqualified/ndmxml-2.0.0-master-2.0.xsd">
<omm id="CCSDS_OMM_VERS" version="2.0">
<header><CREATION_DATE/><ORIGINATOR/></header><body><segment><metadata><OBJECT_NAME>ORBCOMM FM05 [-]</OBJECT_NAME><OBJECT_ID>1997-084F</OBJECT_ID><CENTER_NAME>EARTH</CENTER_NAME><REF_FRAME>TEME</REF_FRAME><TIME_SYSTEM>UTC</TIME_SYSTEM><MEAN_ELEMENT_THEORY>SGP4</MEAN_ELEMENT_THEORY></metadata><data><meanElements><EPOCH>2023-10-09T19:37:57.228672</EPOCH><MEAN_MOTION>14.41506958</MEAN_MOTION><ECCENTRICITY>.0001491</ECCENTRICITY><INCLINATION>45.0150</INCLINATION><RA_OF_ASC_NODE>76.2699</RA_OF_ASC_NODE><ARG_OF_PERICENTER>11.7348</ARG_OF_PERICENTER><MEAN_ANOMALY>348.3537</MEAN_ANOMALY></meanElements><tleParameters><EPHEMERIS_TYPE>0</EPHEMERIS_TYPE><CLASSIFICATION_TYPE>U</CLASSIFICATION_TYPE><NORAD_CAT_ID>25117</NORAD_CAT_ID><ELEMENT_SET_NO>999</ELEMENT_SET_NO><REV_AT_EPOCH>35154</REV_AT_EPOCH><BSTAR>.13276E-2</BSTAR><MEAN_MOTION_DOT>.4211E-4</MEAN_MOTION_DOT><MEAN_MOTION_DDOT>0</MEAN_MOTION_DDOT></tleParameters></data></segment></body></omm>
<omm id="CCSDS_OMM_VERS" version="2.0">
<header><CREATION_DATE/><ORIGINATOR/></header><body><segment><metadata><OBJECT_NAME>ORBCOMM FM06 [+]</OBJECT_NAME><OBJECT_ID>1997-084G</OBJECT_ID><CENTER_NAME>EARTH</CENTER_NAME><REF_FRAME>TEME</REF_FRAME><TIME_SYSTEM>UTC</TIME_SYSTEM><MEAN_ELEMENT_THEORY>SGP4</MEAN_ELEMENT_THEORY></metadata><data><meanElements><EPOCH>2023-10-10T11:26:34.758816</EPOCH><MEAN_MOTION>14.41454315</MEAN_MOTION><ECCENTRICITY>.0000753</ECCENTRICITY><INCLINATION>45.0147</INCLINATION><RA_OF_ASC_NODE>73.2856</RA_OF_ASC_NODE><ARG_OF_PERICENTER>52.6390</ARG_OF_PERICENTER><MEAN_ANOMALY>353.9475</MEAN_ANOMALY></meanElements><tleParameters><EPHEMERIS_TYPE>0</EPHEMERIS_TYPE><CLASSIFICATION_TYPE>U</CLASSIFICATION_TYPE><NORAD_CAT_ID>25118</NORAD_CAT_ID><ELEMENT_SET_NO>999</ELEMENT_SET_NO><REV_AT_EPOCH>35257</REV_AT_EPOCH><BSTAR>.14037E-2</BSTAR><MEAN_MOTION_DOT>.4456E-4</MEAN_MOTION_DOT><MEAN_MOTION_DDOT>0</MEAN_MOTION_DDOT></tleParameters></data></segment></body></omm>
<omm id="CCSDS_OMM_VERS" version="2.0">
<header><CREATION_DATE/><ORIGINATOR/></header><body><segment><metadata><OBJECT_NAME>ORBCOMM FM07 [-]</OBJECT_NAME><OBJECT_ID>1997-084H</OBJECT_ID><CENTER_NAME>EARTH</CENTER_NAME><REF_FRAME>TEME</REF_FRAME><TIME_SYSTEM>UTC</TIME_SYSTEM><MEAN_ELEMENT_THEORY>SGP4</MEAN_ELEMENT_THEORY></metadata><data><meanElements><EPOCH>2023-10-09T18:08:59.309664</EPOCH><MEAN_MOTION>14.41393370</MEAN_MOTION><ECCENTRICITY>.0002054</ECCENTRICITY><INCLINATION>45.0138</INCLINATION><RA_OF_ASC_NODE>77.1573</RA_OF_ASC_NODE><ARG_OF_PERICENTER>348.5602</ARG_OF_PERICENTER><MEAN_ANOMALY>11.5201</MEAN_ANOMALY></meanElements><tleParameters><EPHEMERIS_TYPE>0</EPHEMERIS_TYPE><CLASSIFICATION_TYPE>U</CLASSIFICATION_TYPE><NORAD_CAT_ID>25119</NORAD_CAT_ID><ELEMENT_SET_NO>999</ELEMENT_SET_NO><REV_AT_EPOCH>35244</REV_AT_EPOCH><BSTAR>.13004E-2</BSTAR><MEAN_MOTION_DOT>.4112E-4</MEAN_MOTION_DOT><MEAN_MOTION_DDOT>0</MEAN_MOTION_DDOT></tleParameters></data></segment></body></omm>
<omm id="CCSDS_OMM_VERS" version="2.0">
<header><CREATION_DATE/><ORIGINATOR/></header><body><segment><metadata><OBJECT_NAME>ORBCOMM FM03 [-]</OBJECT_NAME><OBJECT_ID>1998-007B</OBJECT_ID><CENTER_NAME>EARTH</CENTER_NAME><REF_FRAME>TEME</REF_FRAME><TIME_SYSTEM>UTC</TIME_SYSTEM><MEAN_ELEMENT_THEORY>SGP4</MEAN_ELEMENT_THEORY></metadata><data><meanElements><EPOCH>2023-10-09T22:21:08.064576</EPOCH><MEAN_MOTION>14.31333372</MEAN_MOTION><ECCENTRICITY>.0049793</ECCENTRICITY><INCLINATION>107.9824</INCLINATION><RA_OF_ASC_NODE>312.7271</RA_OF_ASC_NODE><ARG_OF_PERICENTER>244.7640</ARG_OF_PERICENTER><MEAN_ANOMALY>114.8331</MEAN_ANOMALY></meanElements><tleParameters><EPHEMERIS_TYPE>0</EPHEMERIS_TYPE><CLASSIFICATION_TYPE>U</CLASSIFICATION_TYPE><NORAD_CAT_ID>25158</NORAD_CAT_ID><ELEMENT_SET_NO>999</ELEMENT_SET_NO><REV_AT_EPOCH>33577</REV_AT_EPOCH><BSTAR>.6993E-3</BSTAR><MEAN_MOTION_DOT>.1749E-4</MEAN_MOTION_DOT><MEAN_MOTION_DDOT>0</MEAN_MOTION_DDOT></tleParameters></data></segment></body></omm>
<omm id="CCSDS_OMM_VERS" version="2.0">
<header><CREATION_DATE/><ORIGINATOR/></header><body><segment><metadata><OBJECT_NAME>ORBCOMM FM04 [+]</OBJECT_NAME><OBJECT_ID>1998-007C</OBJECT_ID><CENTER_NAME>EARTH</CENTER_NAME><REF_FRAME>TEME</REF_FRAME><TIME_SYSTEM>UTC</TIME_SYSTEM><MEAN_ELEMENT_THEORY>SGP4</MEAN_ELEMENT_THEORY></metadata><data><meanElements><EPOCH>2023-10-09T21:20:00.554784</EPOCH><MEAN_MOTION>14.31607425</MEAN_MOTION><ECCENTRICITY>.0045288</ECCENTRICITY><INCLINATION>107.9799</INCLINATION><RA_OF_ASC_NODE>315.4342</RA_OF_ASC_NODE><ARG_OF_PERICENTER>242.9931</ARG_OF_PERICENTER><MEAN_ANOMALY>116.6579</MEAN_ANOMALY></meanElements><tleParameters><EPHEMERIS_TYPE>0</EPHEMERIS_TYPE><CLASSIFICATION_TYPE>U</CLASSIFICATION_TYPE><NORAD_CAT_ID>25159</NORAD_CAT_ID><ELEMENT_SET_NO>999</ELEMENT_SET_NO><REV_AT_EPOCH>33593</REV_AT_EPOCH><BSTAR>.81525E-3</BSTAR><MEAN_MOTION_DOT>.2068E-4</MEAN_MOTION_DOT><MEAN_MOTION_DDOT>0</MEAN_MOTION_DDOT></tleParameters></data></segment></body></omm>
<omm id="CCSDS_OMM_VERS" version="2.0">
<header><CREATION_DATE/><ORIGINATOR/></header><body><segment><metadata><OBJECT_NAME>ORBCOMM FM17 [-]</OBJECT_NAME><OBJECT_ID>1998-046A</OBJECT_ID><CENTER_NAME>EARTH</CENTER_NAME><REF_FRAME>TEME</REF_FRAME><TIME_SYSTEM>UTC</TIME_SYSTEM><MEAN_ELEMENT_THEORY>SGP4</MEAN_ELEMENT_THEORY></metadata><data><meanElements><EPOCH>2023-10-09T16:53:33.690624</EPOCH><MEAN_MOTION>14.32390134</MEAN_MOTION><ECCENTRICITY>.0003137</ECCENTRICITY><INCLINATION>44.9938</INCLINATION><RA_OF_ASC_NODE>280.3993</RA_OF_ASC_NODE><ARG_OF_PERICENTER>321.5247</ARG_OF_PERICENTER><MEAN_ANOMALY>38.5375</MEAN_ANOMALY></meanElements><tleParameters><EPHEMERIS_TYPE>0</EPHEMERIS_TYPE><CLASSIFICATION_TYPE>U</CLASSIFICATION_TYPE><NORAD_CAT_ID>25413</NORAD_CAT_ID><ELEMENT_SET_NO>999</ELEMENT_SET_NO><REV_AT_EPOCH>31470</REV_AT_EPOCH><BSTAR>.81805E-3</BSTAR><MEAN_MOTION_DOT>.2092E-4</MEAN_MOTION_DOT><MEAN_MOTION_DDOT>0</MEAN_MOTION_DDOT></tleParameters></data></segment></body></omm>
<omm id="CCSDS_OMM_VERS" version="2.0">
<header><CREATION_DATE/><ORIGINATOR/></header><body><segment><metadata><OBJECT_NAME>ORBCOMM FM18 [-]</OBJECT_NAME><OBJECT_ID>1998-046B</OBJECT_ID><CENTER_NAME>EARTH</CENTER_NAME><REF_FRAME>TEME</REF_FRAME><TIME_SYSTEM>UTC</TIME_SYSTEM><MEAN_ELEMENT_THEORY>SGP4</MEAN_ELEMENT_THEORY></metadata><data><meanElements><EPOCH>2023-10-09T21:09:57.611520</EPOCH><MEAN_MOTION>14.34901261</MEAN_MOTION><ECCENTRICITY>.0004242</ECCENTRICITY><INCLINATION>44.9931</INCLINATION><RA_OF_ASC_NODE>210.9778</RA_OF_ASC_NODE><ARG_OF_PERICENTER>40.5537</ARG_OF_PERICENTER><MEAN_ANOMALY>319.5625</MEAN_ANOMALY></meanElements><tleParameters><EPHEMERIS_TYPE>0</EPHEMERIS_TYPE><CLASSIFICATION_TYPE>U</CLASSIFICATION_TYPE><NORAD_CAT_ID>25414</NORAD_CAT_ID><ELEMENT_SET_NO>999</ELEMENT_SET_NO><REV_AT_EPOCH>31562</REV_AT_EPOCH><BSTAR>.11375E-2</BSTAR><MEAN_MOTION_DOT>.3123E-4</MEAN_MOTION_DOT><MEAN_MOTION_DDOT>0</MEAN_MOTION_DDOT></tleParameters></data></segment></body></omm>
<omm id="CCSDS_OMM_VERS" version="2.0">
<header><CREATION_DATE/><ORIGINATOR/></header><body><segment><metadata><OBJECT_NAME>ORBCOMM FM19 [+]</OBJECT_NAME><OBJECT_ID>1998-046C</OBJECT_ID><CENTER_NAME>EARTH</CENTER_NAME><REF_FRAME>TEME</REF_FRAME><TIME_SYSTEM>UTC</TIME_SYSTEM><MEAN_ELEMENT_THEORY>SGP4</MEAN_ELEMENT_THEORY></metadata><data><meanElements><EPOCH>2023-10-09T19:57:37.794816</EPOCH><MEAN_MOTION>14.34773701</MEAN_MOTION><ECCENTRICITY>.000343</ECCENTRICITY><INCLINATION>44.9938</INCLINATION><RA_OF_ASC_NODE>212.3599</RA_OF_ASC_NODE><ARG_OF_PERICENTER>24.0539</ARG_OF_PERICENTER><MEAN_ANOMALY>9.4882</MEAN_ANOMALY></meanElements><tleParameters><EPHEMERIS_TYPE>0</EPHEMERIS_TYPE><CLASSIFICATION_TYPE>U</CLASSIFICATION_TYPE><NORAD_CAT_ID>25415</NORAD_CAT_ID><ELEMENT_SET_NO>999</ELEMENT_SET_NO><REV_AT_EPOCH>31558</REV_AT_EPOCH><BSTAR>.10742E-2</BSTAR><MEAN_MOTION_DOT>.2933E-4</MEAN_MOTION_DOT><MEAN_MOTION_DDOT>0</MEAN_MOTION_DDOT></tleParameters></data></segment></body></omm>

</ndm>
